{"type": "FeatureCollection", "features": [ {"type": "Feature", "properties": {"norad_id": 43214, "name": "FENGYUN 1C DEB", "group": "fengyun-1c-debris", "lat": 75.40005346769678, "lon": -102.77886921042602, "alt_km": 840.3070700505004, "timestamp": "2025-12-02T06:27:53.303849+00:00", "meta": {"OBJECT_NAME": "FENGYUN 1C DEB", "OBJECT_ID": "1999-025EYN", "EPOCH": "2025-12-01T03:00:11.592288", "MEAN_MOTION": 14.23995802, "ECCENTRICITY": 0.00546449, "INCLINATION": 98.7359, "RA_OF_ASC_NODE": 39.906, "ARG_OF_PERICENTER": 260.2942, "MEAN_ANOMALY": 99.2061, "EPHEMERIS_TYPE": 0, "CLASSIFICATION_TYPE": "U", "NORAD_CAT_ID": 43214, "ELEMENT_SET_NO": 999, "REV_AT_EPOCH": 40238, "BSTAR": 0.0016807676, "MEAN_MOTION_DOT": 3.875e-05, "MEAN_MOTION_DDOT": 0}, "tle": {"line1": "1 43214U 99025EYN 25335.12513417  .00003875  00000+0  16808-2 0  9998", "line2": "2 43214  98.7359  39.9060 0054644 260.2942  99.2061 14.23995802402389"}}, "geometry": {"type": "Point", "coordinates": [-102.77886921042602, 75.40005346769678]}}, {"type": "Feature", "properties": {"norad_id": 43358, "name": "FENGYUN 1C DEB", "group": "fengyun-1c-debris", "lat": 69.46666260469786, "lon": -58.15256646846809, "alt_km": 1232.547573761578, "timestamp": "2025-12-02T06:27:53.303859+00:00", "meta": {"OBJECT_NAME": "FENGYUN 1C DEB", "OBJECT_ID": "1999-025EYP", "EPOCH": "2025-12-01T06:35:57.160032", "MEAN_MOTION": 13.40301002, "ECCENTRICITY": 0.0367307, "INCLINATION": 98.6882, "RA_OF_ASC_NODE": 96.8984, "ARG_OF_PERICENTER": 231.4758, "MEAN_ANOMALY": 125.2914, "EPHEMERIS_TYPE": 0, "CLASSIFICATION_TYPE": "U", "NORAD_CAT_ID": 43358, "ELEMENT_SET_NO": 999, "REV_AT_EPOCH": 53577, "BSTAR": 0.0025952, "MEAN_MOTION_DOT": 2.07e-05, "MEAN_MOTION_DDOT": 0}, "tle": {"line1": "1 43358U 99025EYP 25335.27496713  .00002070  00000+0  25952-2 0  9998", "line2": "2 43358  98.6882  96.8984 0367307 231.4758 125.2914 13.40301002535771"}}, "geometry": {"type": "Point", "coordinates": [-58.15256646846809, 69.46666260469786]}}, {"type": "Feature", "properties": {"norad_id": 43359, "name": "FENGYUN 1C DEB", "group": "fengyun-1c-debris", "lat": 38.629630018756814, "lon": 48.64073168034144, "alt_km": 759.0709064928669, "timestamp": "2025-12-02T06:27:53.303869+00:00", "meta": {"OBJECT_NAME": "FENGYUN 1C DEB", "OBJECT_ID": "1999-025EYQ", "EPOCH": "2025-12-01T04:58:15.580128", "MEAN_MOTION": 14.23000949, "ECCENTRICITY": 0.0074387, "INCLINATION": 99.0545, "RA_OF_ASC_NODE": 54.8701, "ARG_OF_PERICENTER": 49.0073, "MEAN_ANOMALY": 311.7506, "EPHEMERIS_TYPE": 0, "CLASSIFICATION_TYPE": "U", "NORAD_CAT_ID": 43359, "ELEMENT_SET_NO": 999, "REV_AT_EPOCH": 47585, "BSTAR": 0.0023703, "MEAN_MOTION_DOT": 5.45e-05, "MEAN_MOTION_DDOT": 0}, "tle": {"line1": "1 43359U 99025EYQ 25335.20712477  .00005450  00000+0  23703-2 0  9997", "line2": "2 43359  99.0545  54.8701 0074387  49.0073 311.7506 14.23000949475859"}}, "geometry": {"type": "Point", "coordinates": [48.64073168034144, 38.629630018756814]}}, {"type": "Feature", "properties": {"norad_id": 45526, "name": "FENGYUN 1C DEB", "group": "fengyun-1c-debris", "lat": 46.0452730048057, "lon": 39.21826578673506, "alt_km": 836.4833233024056, "timestamp": "2025-12-02T06:27:53.303879+00:00", "meta": {"OBJECT_NAME": "FENGYUN 1C DEB", "OBJECT_ID": "1999-025EYR", "EPOCH": "2025-12-01T03:17:49.174944", "MEAN_MOTION": 14.25781259, "ECCENTRICITY": 0.00536189, "INCLINATION": 98.7652, "RA_OF_ASC_NODE": 47.2946, "ARG_OF_PERICENTER": 255.7142, "MEAN_ANOMALY": 103.8079, "EPHEMERIS_TYPE": 0, "CLASSIFICATION_TYPE": "U", "NORAD_CAT_ID": 45526, "ELEMENT_SET_NO": 999, "REV_AT_EPOCH": 43211, "BSTAR": 0.0019393759, "MEAN_MOTION_DOT": 4.636e-05, "MEAN_MOTION_DDOT": 0}, "tle": {"line1": "1 45526U 99025EYR 25335.13737471  .00004636  00000+0  19394-2 0  9994", "line2": "2 45526  98.7652  47.2946 0053618 255.7142 103.8079 14.25781259432115"}}, "geometry": {"type": "Point", "coordinates": [39.21826578673506, 46.0452730048057]}}, {"type": "Feature", "properties": {"norad_id": 45527, "name": "FENGYUN 1C DEB", "group": "fengyun-1c-debris", "lat": 71.3458122058944, "lon": -109.94480686205748, "alt_km": 837.1081754935785, "timestamp": "2025-12-02T06:27:53.303889+00:00", "meta": {"OBJECT_NAME": "FENGYUN 1C DEB", "OBJECT_ID": "1999-025EYS", "EPOCH": "2025-11-30T03:23:05.245152", "MEAN_MOTION": 14.24357135, "ECCENTRICITY": 0.00541994, "INCLINATION": 98.7401, "RA_OF_ASC_NODE": 40.8291, "ARG_OF_PERICENTER": 261.9193, "MEAN_ANOMALY": 97.5834, "EPHEMERIS_TYPE": 0, "CLASSIFICATION_TYPE": "U", "NORAD_CAT_ID": 45527, "ELEMENT_SET_NO": 999, "REV_AT_EPOCH": 39400, "BSTAR": 0.001807358, "MEAN_MOTION_DOT": 4.199e-05, "MEAN_MOTION_DDOT": 0}, "tle": {"line1": "1 45527U 99025EYS 25334.14103293  .00004199  00000+0  18074-2 0  9992", "line2": "2 45527  98.7401  40.8291 0054199 261.9193  97.5834 14.24357135394004"}}, "geometry": {"type": "Point", "coordinates": [-109.94480686205748, 71.3458122058944]}}, {"type": "Feature", "properties": {"norad_id": 46440, "name": "FENGYUN 1C DEB", "group": "fengyun-1c-debris", "lat": -77.3578879084991, "lon": 141.15808554581866, "alt_km": 841.0613506032441, "timestamp": "2025-12-02T06:27:53.303898+00:00", "meta": {"OBJECT_NAME": "FENGYUN 1C DEB", "OBJECT_ID": "1999-025EYV", "EPOCH": "2025-11-30T21:42:54.078912", "MEAN_MOTION": 14.20290607, "ECCENTRICITY": 0.0175806, "INCLINATION": 98.5947, "RA_OF_ASC_NODE": 2.2289, "ARG_OF_PERICENTER": 169.3708, "MEAN_ANOMALY": 316.1091, "EPHEMERIS_TYPE": 0, "CLASSIFICATION_TYPE": "U", "NORAD_CAT_ID": 46440, "ELEMENT_SET_NO": 999, "REV_AT_EPOCH": 62201, "BSTAR": 0.00034066806, "MEAN_MOTION_DOT": 8.08e-06, "MEAN_MOTION_DDOT": 0}, "tle": {"line1": "1 46440U 99025EYV 25334.90479258  .00000808  00000+0  34067-3 0  9992", "line2": "2 46440  98.5947   2.2289 0175806 169.3708 316.1091 14.20290607622019"}}, "geometry": {"type": "Point", "coordinates": [141.15808554581866, -77.3578879084991]}}, {"type": "Feature", "properties": {"norad_id": 46443, "name": "FENGYUN 1C DEB", "group": "fengyun-1c-debris", "lat": 80.04684750167081, "lon": -69.43195649075346, "alt_km": 822.2959419052968, "timestamp": "2025-12-02T06:27:53.303908+00:00", "meta": {"OBJECT_NAME": "FENGYUN 1C DEB", "OBJECT_ID": "1999-025EYY", "EPOCH": "2025-11-30T03:06:17.115264", "MEAN_MOTION": 14.10725153, "ECCENTRICITY": 0.00970161, "INCLINATION": 99.2151, "RA_OF_ASC_NODE": 40.6932, "ARG_OF_PERICENTER": 31.9391, "MEAN_ANOMALY": 358.4735, "EPHEMERIS_TYPE": 0, "CLASSIFICATION_TYPE": "U", "NORAD_CAT_ID": 46443, "ELEMENT_SET_NO": 999, "REV_AT_EPOCH": 59418, "BSTAR": 0.0019203135, "MEAN_MOTION_DOT": 3.542e-05, "MEAN_MOTION_DDOT": 0}, "tle": {"line1": "1 46443U 99025EYY 25334.12936476  .00003542  00000+0  19203-2 0  9991", "line2": "2 46443  99.2151  40.6932 0097016  31.9391 358.4735 14.10725153594184"}}, "geometry": {"type": "Point", "coordinates": [-69.43195649075346, 80.04684750167081]}}, {"type": "Feature", "properties": {"norad_id": 46444, "name": "FENGYUN 1C DEB", "group": "fengyun-1c-debris", "lat": -58.62187969462784, "lon": 144.32366796432217, "alt_km": 776.3943568154418, "timestamp": "2025-12-02T06:27:53.303918+00:00", "meta": {"OBJECT_NAME": "FENGYUN 1C DEB", "OBJECT_ID": "1999-025EYZ", "EPOCH": "2025-11-29T06:45:16.022016", "MEAN_MOTION": 14.27103748, "ECCENTRICITY": 0.00836434, "INCLINATION": 98.5135, "RA_OF_ASC_NODE": 335.6326, "ARG_OF_PERICENTER": 190.2717, "MEAN_ANOMALY": 186.5379, "EPHEMERIS_TYPE": 0, "CLASSIFICATION_TYPE": "U", "NORAD_CAT_ID": 46444, "ELEMENT_SET_NO": 999, "REV_AT_EPOCH": 62390, "BSTAR": 0.00050592492, "MEAN_MOTION_DOT": 1.237e-05, "MEAN_MOTION_DDOT": 0}, "tle": {"line1": "1 46444U 99025EYZ 25333.28143544  .00001237  00000+0  50592-3 0  9990", "line2": "2 46444  98.5135 335.6326 0083643 190.2717 186.5379 14.27103748623900"}}, "geometry": {"type": "Point", "coordinates": [144.32366796432217, -58.62187969462784]}}, {"type": "Feature", "properties": {"norad_id": 46449, "name": "FENGYUN 1C DEB", "group": "fengyun-1c-debris", "lat": -20.81959898124841, "lon": 14.2213681577387, "alt_km": 717.1553947895709, "timestamp": "2025-12-02T06:27:53.303928+00:00", "meta": {"OBJECT_NAME": "FENGYUN 1C DEB", "OBJECT_ID": "1999-025EZE", "EPOCH": "2025-11-27T19:57:02.428704", "MEAN_MOTION": 14.19021773, "ECCENTRICITY": 0.02029501, "INCLINATION": 98.6463, "RA_OF_ASC_NODE": 6.5721, "ARG_OF_PERICENTER": 314.0231, "MEAN_ANOMALY": 44.4375, "EPHEMERIS_TYPE": 0, "CLASSIFICATION_TYPE": "U", "NORAD_CAT_ID": 46449, "ELEMENT_SET_NO": 999, "REV_AT_EPOCH": 57425, "BSTAR": 0.00050383916, "MEAN_MOTION_DOT": 1.244e-05, "MEAN_MOTION_DDOT": 0}, "tle": {"line1": "1 46449U 99025EZE 25331.83127811  .00001244  00000+0  50384-3 0  9990", "line2": "2 46449  98.6463   6.5721 0202950 314.0231  44.4375 14.19021773574253"}}, "geometry": {"type": "Point", "coordinates": [14.2213681577387, -20.81959898124841]}}, {"type": "Feature", "properties": {"norad_id": 46450, "name": "FENGYUN 1C DEB", "group": "fengyun-1c-debris", "lat": 0.8001536276818599, "lon": -166.03790073990433, "alt_km": 882.0360653088755, "timestamp": "2025-12-02T06:27:53.303938+00:00", "meta": {"OBJECT_NAME": "FENGYUN 1C DEB", "OBJECT_ID": "1999-025EZF", "EPOCH": "2025-12-01T01:22:23.335392", "MEAN_MOTION": 14.03437958, "ECCENTRICITY": 0.01820591, "INCLINATION": 98.0807, "RA_OF_ASC_NODE": 192.9977, "ARG_OF_PERICENTER": 94.2765, "MEAN_ANOMALY": 267.9231, "EPHEMERIS_TYPE": 0, "CLASSIFICATION_TYPE": "U", "NORAD_CAT_ID": 46450, "ELEMENT_SET_NO": 999, "REV_AT_EPOCH": 60955, "BSTAR": 0.0021892778, "MEAN_MOTION_DOT": 3.934e-05, "MEAN_MOTION_DDOT": 0}, "tle": {"line1": "1 46450U 99025EZF 25335.05721453  .00003934  00000+0  21893-2 0  9992", "line2": "2 46450  98.0807 192.9977 0182059  94.2765 267.9231 14.03437958609554"}}, "geometry": {"type": "Point", "coordinates": [-166.03790073990433, 0.8001536276818599]}}]}